[{"OBJECT_NAME":"STARLINK-35512","OBJECT_ID":"2025-253M","EPOCH":"2026-03-09T10:29:14.706528","MEAN_MOTION":15.27582162,"ECCENTRICITY":3.671e-5,"INCLINATION":42.9985,"RA_OF_ASC_NODE":214.1234,"ARG_OF_PERICENTER":188.9051,"MEAN_ANOMALY":171.1794,"EPHEMERIS_TYPE":0,"CLASSIFICATION_TYPE":"U","NORAD_CAT_ID":66330,"ELEMENT_SET_NO":999,"REV_AT_EPOCH":2020,"BSTAR":0.0010683445,"MEAN_MOTION_DOT":0.00029255,"MEAN_MOTION_DDOT":0},{"OBJECT_NAME":"COSMOS 2251 DEB","OBJECT_ID":"1993-036TX","EPOCH":"2026-03-09T08:00:49.998528","MEAN_MOTION":15.19675953,"ECCENTRICITY":0.00326805,"INCLINATION":74.0422,"RA_OF_ASC_NODE":187.2566,"ARG_OF_PERICENTER":9.105,"MEAN_ANOMALY":22.3257,"EPHEMERIS_TYPE":0,"CLASSIFICATION_TYPE":"U","NORAD_CAT_ID":34478,"ELEMENT_SET_NO":999,"REV_AT_EPOCH":90283,"BSTAR":0.0038377669,"MEAN_MOTION_DOT":0.00083988,"MEAN_MOTION_DDOT":0}]
